[{"OBJECT_NAME":"STARLINK-30377","OBJECT_ID":"2023-138T","EPOCH":"2023-09-15T20:00:01.000224","MEAN_MOTION":15.88425561,"ECCENTRICITY":0.0002448,"INCLINATION":43.0018,"RA_OF_ASC_NODE":131.7286,"ARG_OF_PERICENTER":151.3619,"MEAN_ANOMALY":284.6362,"EPHEMERIS_TYPE":0,"CLASSIFICATION_TYPE":"U","NORAD_CAT_ID":57825,"ELEMENT_SET_NO":999,"REV_AT_EPOCH":218,"BSTAR":-0.0032001,"MEAN_MOTION_DOT":-0.0083796,"MEAN_MOTION_DDOT":0},{"OBJECT_NAME":"STARLINK-30422","OBJECT_ID":"2023-138U","EPOCH":"2023-09-15T20:00:01.000224","MEAN_MOTION":15.8848032,"ECCENTRICITY":0.0003002,"INCLINATION":43.0018,"RA_OF_ASC_NODE":131.7237,"ARG_OF_PERICENTER":128.7163,"MEAN_ANOMALY":309.558,"EPHEMERIS_TYPE":0,"CLASSIFICATION_TYPE":"U","NORAD_CAT_ID":57826,"ELEMENT_SET_NO":999,"REV_AT_EPOCH":228,"BSTAR":-0.003233,"MEAN_MOTION_DOT":-0.00848208,"MEAN_MOTION_DDOT":0},{"OBJECT_NAME":"STARLINK-30402","OBJECT_ID":"2023-138V","EPOCH":"2023-09-15T20:00:01.000224","MEAN_MOTION":15.88450984,"ECCENTRICITY":0.0004461,"INCLINATION":43.0019,"RA_OF_ASC_NODE":131.7251,"ARG_OF_PERICENTER":140.1201,"MEAN_ANOMALY":296.909,"EPHEMERIS_TYPE":0,"CLASSIFICATION_TYPE":"U","NORAD_CAT_ID":57827,"ELEMENT_SET_NO":999,"REV_AT_EPOCH":228,"BSTAR":-0.003218,"MEAN_MOTION_DOT":-0.00844231,"MEAN_MOTION_DDOT":0},{"OBJECT_NAME":"STARLINK-30411","OBJECT_ID":"2023-138W","EPOCH":"2023-09-15T20:00:01.000224","MEAN_MOTION":15.88503829,"ECCENTRICITY":0.0003354,"INCLINATION":43.0017,"RA_OF_ASC_NODE":131.7204,"ARG_OF_PERICENTER":147.9411,"MEAN_ANOMALY":291.1695,"EPHEMERIS_TYPE":0,"CLASSIFICATION_TYPE":"U","NORAD_CAT_ID":57828,"ELEMENT_SET_NO":999,"REV_AT_EPOCH":222,"BSTAR":-0.0032649,"MEAN_MOTION_DOT":-0.00856935,"MEAN_MOTION_DDOT":0},{"OBJECT_NAME":"STARLINK-30418","OBJECT_ID":"2023-138X","EPOCH":"2023-09-15T20:00:01.000224","MEAN_MOTION":15.88528964,"ECCENTRICITY":0.0005679,"INCLINATION":43.0018,"RA_OF_ASC_NODE":131.7177,"ARG_OF_PERICENTER":133.94,"MEAN_ANOMALY":306.1869,"EPHEMERIS_TYPE":0,"CLASSIFICATION_TYPE":"U","NORAD_CAT_ID":57829,"ELEMENT_SET_NO":999,"REV_AT_EPOCH":212,"BSTAR":-0.003282,"MEAN_MOTION_DOT":-0.00863396,"MEAN_MOTION_DDOT":0},{"OBJECT_NAME":"YAOGAN-40 01A","OBJECT_ID":"2023-139A","EPOCH":"2023-09-15T13:35:07.583136","MEAN_MOTION":14.25180521,"ECCENTRICITY":0.0010661,"INCLINATION":85.9974,"RA_OF_ASC_NODE":350.983,"ARG_OF_PERICENTER":206.3781,"MEAN_ANOMALY":151.5064,"EPHEMERIS_TYPE":0,"CLASSIFICATION_TYPE":"U","NORAD_CAT_ID":57830,"ELEMENT_SET_NO":999,"REV_AT_EPOCH":77,"BSTAR":0.011988,"MEAN_MOTION_DOT":0.00028271,"MEAN_MOTION_DDOT":0},{"OBJECT_NAME":"CZ-6A R\/B","OBJECT_ID":"2023-139B","EPOCH":"2023-09-15T13:36:41.921568","MEAN_MOTION":14.26190713,"ECCENTRICITY":0.0011068,"INCLINATION":85.9961,"RA_OF_ASC_NODE":350.9827,"ARG_OF_PERICENTER":237.8094,"MEAN_ANOMALY":122.201,"EPHEMERIS_TYPE":0,"CLASSIFICATION_TYPE":"U","NORAD_CAT_ID":57831,"ELEMENT_SET_NO":999,"REV_AT_EPOCH":77,"BSTAR":0.00032564,"MEAN_MOTION_DOT":7.99e-6,"MEAN_MOTION_DDOT":0},{"OBJECT_NAME":"YAOGAN-40 01B","OBJECT_ID":"2023-139C","EPOCH":"2023-09-15T13:36:35.544384","MEAN_MOTION":14.22398234,"ECCENTRICITY":0.0003453,"INCLINATION":85.9951,"RA_OF_ASC_NODE":350.9906,"ARG_OF_PERICENTER":141.7876,"MEAN_ANOMALY":215.7889,"EPHEMERIS_TYPE":0,"CLASSIFICATION_TYPE":"U","NORAD_CAT_ID":57832,"ELEMENT_SET_NO":999,"REV_AT_EPOCH":77,"BSTAR":0.018812,"MEAN_MOTION_DOT":0.00042104,"MEAN_MOTION_DDOT":0},{"OBJECT_NAME":"YAOGAN-40 01C","OBJECT_ID":"2023-139D","EPOCH":"2023-09-15T13:32:19.162752","MEAN_MOTION":14.29008125,"ECCENTRICITY":0.0015684,"INCLINATION":86.003,"RA_OF_ASC_NODE":350.9809,"ARG_OF_PERICENTER":286.4597,"MEAN_ANOMALY":75.6111,"EPHEMERIS_TYPE":0,"CLASSIFICATION_TYPE":"U","NORAD_CAT_ID":57833,"ELEMENT_SET_NO":999,"REV_AT_EPOCH":77,"BSTAR":0.050336,"MEAN_MOTION_DOT":0.00129821,"MEAN_MOTION_DDOT":0},{"OBJECT_NAME":"CZ-6A DEB","OBJECT_ID":"2023-139E","EPOCH":"2023-09-15T13:32:56.865984","MEAN_MOTION":14.2688284,"ECCENTRICITY":0.0009876,"INCLINATION":85.9968,"RA_OF_ASC_NODE":350.9816,"ARG_OF_PERICENTER":254.6379,"MEAN_ANOMALY":105.4408,"EPHEMERIS_TYPE":0,"CLASSIFICATION_TYPE":"U","NORAD_CAT_ID":57834,"ELEMENT_SET_NO":999,"REV_AT_EPOCH":77,"BSTAR":-8.4783e-5,"MEAN_MOTION_DOT":-1.86e-6,"MEAN_MOTION_DDOT":0},{"OBJECT_NAME":"CZ-6A R\/B","OBJECT_ID":"2023-139F","EPOCH":"2023-09-15T14:12:34.218144","MEAN_MOTION":14.38168376,"ECCENTRICITY":0.0062175,"INCLINATION":86.0022,"RA_OF_ASC_NODE":350.945,"ARG_OF_PERICENTER":352.8235,"MEAN_ANOMALY":7.2037,"EPHEMERIS_TYPE":0,"CLASSIFICATION_TYPE":"U","NORAD_CAT_ID":57835,"ELEMENT_SET_NO":999,"REV_AT_EPOCH":77,"BSTAR":0.00014049,"MEAN_MOTION_DOT":4.56e-6,"MEAN_MOTION_DDOT":0},{"OBJECT_NAME":"MILLENNIUM","OBJECT_ID":"2023-142A","EPOCH":"2023-09-15T17:42:23.701248","MEAN_MOTION":15.20725714,"ECCENTRICITY":0.0040256,"INCLINATION":97.3187,"RA_OF_ASC_NODE":85.5224,"ARG_OF_PERICENTER":237.1457,"MEAN_ANOMALY":122.5901,"EPHEMERIS_TYPE":0,"CLASSIFICATION_TYPE":"U","NORAD_CAT_ID":57861,"ELEMENT_SET_NO":999,"REV_AT_EPOCH":9,"BSTAR":0.00032453,"MEAN_MOTION_DOT":7.227e-5,"MEAN_MOTION_DDOT":0},{"OBJECT_NAME":"SOYUZ-MS 24","OBJECT_ID":"2023-143A","EPOCH":"2023-09-15T16:14:28.945824","MEAN_MOTION":16.22539595,"ECCENTRICITY":0.0023669,"INCLINATION":51.6485,"RA_OF_ASC_NODE":240.317,"ARG_OF_PERICENTER":86.8513,"MEAN_ANOMALY":81.1085,"EPHEMERIS_TYPE":0,"CLASSIFICATION_TYPE":"U","NORAD_CAT_ID":57862,"ELEMENT_SET_NO":999,"REV_AT_EPOCH":0,"BSTAR":0,"MEAN_MOTION_DOT":-3.777e-5,"MEAN_MOTION_DDOT":1.1942e-5},{"OBJECT_NAME":"SL-4 R\/B","OBJECT_ID":"2023-143B","EPOCH":"2023-09-15T16:13:04.246176","MEAN_MOTION":16.23259343,"ECCENTRICITY":0.0029251,"INCLINATION":51.659,"RA_OF_ASC_NODE":240.3927,"ARG_OF_PERICENTER":72.6541,"MEAN_ANOMALY":89.4302,"EPHEMERIS_TYPE":0,"CLASSIFICATION_TYPE":"U","NORAD_CAT_ID":57863,"ELEMENT_SET_NO":999,"REV_AT_EPOCH":0,"BSTAR":0,"MEAN_MOTION_DOT":-3.784e-5,"MEAN_MOTION_DDOT":1.1965e-5}]
