STARLINK-30377          
1 57825U 23138T   23258.83334491 -.00837960  00000+0 -32001-2 0  9991
2 57825  43.0018 131.7286 0002448 151.3619 284.6362 15.88425561  2184
STARLINK-30422          
1 57826U 23138U   23258.83334491 -.00848208  00000+0 -32330-2 0  9994
2 57826  43.0018 131.7237 0003002 128.7163 309.5580 15.88480320  2284
STARLINK-30402          
1 57827U 23138V   23258.83334491 -.00844231  00000+0 -32180-2 0  9990
2 57827  43.0019 131.7251 0004461 140.1201 296.9090 15.88450984  2281
STARLINK-30411          
1 57828U 23138W   23258.83334491 -.00856935  00000+0 -32649-2 0  9995
2 57828  43.0017 131.7204 0003354 147.9411 291.1695 15.88503829  2225
STARLINK-30418          
1 57829U 23138X   23258.83334491 -.00863396  00000+0 -32820-2 0  9996
2 57829  43.0018 131.7177 0005679 133.9400 306.1869 15.88528964  2127
YAOGAN-40 01A           
1 57830U 23139A   23258.56605999  .00028271  00000+0  11988-1 0  9997
2 57830  85.9974 350.9830 0010661 206.3781 151.5064 14.25180521   771
CZ-6A R/B               
1 57831U 23139B   23258.56715187  .00000799  00000+0  32564-3 0  9999
2 57831  85.9961 350.9827 0011068 237.8094 122.2010 14.26190713   773
YAOGAN-40 01B           
1 57832U 23139C   23258.56707806  .00042104  00000+0  18812-1 0  9993
2 57832  85.9951 350.9906 0003453 141.7876 215.7889 14.22398234   777
YAOGAN-40 01C           
1 57833U 23139D   23258.56411068  .00129821  00000+0  50336-1 0  9995
2 57833  86.0030 350.9809 0015684 286.4597  75.6111 14.29008125   771
CZ-6A DEB               
1 57834U 23139E   23258.56454706 -.00000186  00000+0 -84783-4 0  9992
2 57834  85.9968 350.9816 0009876 254.6379 105.4408 14.26882840   771
CZ-6A R/B               
1 57835U 23139F   23258.59206271  .00000456  00000+0  14049-3 0  9993
2 57835  86.0022 350.9450 0062175 352.8235   7.2037 14.38168376   773
MILLENNIUM              
1 57861U 23142A   23258.73777432  .00007227  00000+0  32453-3 0  9996
2 57861  97.3187  85.5224 0040256 237.1457 122.5901 15.20725714    99
SOYUZ-MS 24             
1 57862U 23143A   23258.67672391 -.00003777  11942-4  00000+0 0  9997
2 57862  51.6485 240.3170 0023669  86.8513  81.1085 16.22539595    03
SL-4 R/B                
1 57863U 23143B   23258.67574359 -.00003784  11965-4  00000+0 0  9996
2 57863  51.6590 240.3927 0029251  72.6541  89.4302 16.23259343    02
